{"type": "FeatureCollection", "features": [{"type": "Feature", "properties": {"name": "Zagreb"}, "geometry": {"type": "Point", "coordinates": [15.982, 45.815]}}, {"type": "Feature", "properties": {"name": "Split"}, "geometry": {"type": "Point", "coordinates": [16.44, 43.508]}}, {"type": "Feature", "properties": {"name": "Rijeka"}, "geometry": {"type": "Point", "coordinates": [14.442, 45.327]}}, {"type": "Feature", "properties": {"name": "Osijek"}, "geometry": {"type": "Point", "coordinates": [18.695, 45.555]}}, {"type": "Feature", "properties": {"name": "Zadar"}, "geometry": {"type": "Point", "coordinates": [15.232, 44.119]}}, {"type": "Feature", "properties": {"name": "Pula"}, "geometry": {"type": "Point", "coordinates": [13.849, 44.867]}}, {"type": "Feature", "properties": {"name": "Slavonski Brod"}, "geometry": {"type": "Point", "coordinates": [18.015, 45.16]}}, {"type": "Feature", "properties": {"name": "Karlovac"}, "geometry": {"type": "Point", "coordinates": [15.556, 45.493]}}, {"type": "Feature", "properties": {"name": "Varaždin"}, "geometry": {"type": "Point", "coordinates": [16.336, 46.305]}}, {"type": "Feature", "properties": {"name": "Šibenik"}, "geometry": {"type": "Point", "coordinates": [15.896, 43.735]}}, {"type": "Feature", "properties": {"name": "Dubrovnik"}, "geometry": {"type": "Point", "coordinates": [18.094, 42.65]}}, {"type": "Feature", "properties": {"name": "Sisak"}, "geometry": {"type": "Point", "coordinates": [16.376, 45.487]}}, {"type": "Feature", "properties": {"name": "Velika Gorica"}, "geometry": {"type": "Point", "coordinates": [16.076, 45.714]}}, {"type": "Feature", "properties": {"name": "Samobor"}, "geometry": {"type": "Point", "coordinates": [15.711, 45.802]}}, {"type": "Feature", "properties": {"name": "Poreč"}, "geometry": {"type": "Point", "coordinates": [13.595, 45.227]}}, {"type": "Feature", "properties": {"name": "Rovinj"}, "geometry": {"type": "Point", "coordinates": [13.638, 45.081]}}, {"type": "Feature", "properties": {"name": "Makarska"}, "geometry": {"type": "Point", "coordinates": [17.019, 43.294]}}, {"type": "Feature", "properties": {"name": "Trogir"}, "geometry": {"type": "Point", "coordinates": [16.25, 43.517]}}, {"type": "Feature", "properties": {"name": "Kaštela"}, "geometry": {"type": "Point", "coordinates": [16.34, 43.55]}}, {"type": "Feature", "properties": {"name": "Solin"}, "geometry": {"type": "Point", "coordinates": [16.489, 43.536]}}, {"type": "Feature", "properties": {"name": "Umag"}, "geometry": {"type": "Point", "coordinates": [13.525, 45.437]}}, {"type": "Feature", "properties": {"name": "Opatija"}, "geometry": {"type": "Point", "coordinates": [14.306, 45.337]}}, {"type": "Feature", "properties": {"name": "Crikvenica"}, "geometry": {"type": "Point", "coordinates": [14.692, 45.174]}}, {"type": "Feature", "properties": {"name": "Krk"}, "geometry": {"type": "Point", "coordinates": [14.575, 45.026]}}, {"type": "Feature", "properties": {"name": "Gospić"}, "geometry": {"type": "Point", "coordinates": [15.374, 44.547]}}, {"type": "Feature", "properties": {"name": "Vinkovci"}, "geometry": {"type": "Point", "coordinates": [18.805, 45.288]}}, {"type": "Feature", "properties": {"name": "Vukovar"}, "geometry": {"type": "Point", "coordinates": [19.003, 45.351]}}, {"type": "Feature", "properties": {"name": "Čakovec"}, "geometry": {"type": "Point", "coordinates": [16.437, 46.389]}}, {"type": "Feature", "properties": {"name": "Koprivnica"}, "geometry": {"type": "Point", "coordinates": [16.827, 46.163]}}, {"type": "Feature", "properties": {"name": "Bjelovar"}, "geometry": {"type": "Point", "coordinates": [16.842, 45.899]}}]}