{"type": "FeatureCollection", "features": [{"type": "Feature", "properties": {"name": "Zagrebačka županija"}, "geometry": {"type": "Polygon", "coordinates": [[[15.42, 45.5], [16.02, 45.5], [16.02, 45.94], [15.42, 45.94], [15.42, 45.5]]]}}, {"type": "Feature", "properties": {"name": "Krapinsko-zagorska županija"}, "geometry": {"type": "Polygon", "coordinates": [[[15.58, 45.86], [16.18, 45.86], [16.18, 46.3], [15.58, 46.3], [15.58, 45.86]]]}}, {"type": "Feature", "properties": {"name": "Sisačko-moslavačka županija"}, "geometry": {"type": "Polygon", "coordinates": [[[16.07, 45.08], [16.67, 45.08], [16.67, 45.519999999999996], [16.07, 45.519999999999996], [16.07, 45.08]]]}}, {"type": "Feature", "properties": {"name": "Karlovačka županija"}, "geometry": {"type": "Polygon", "coordinates": [[[15.049999999999999, 45.13], [15.65, 45.13], [15.65, 45.57], [15.049999999999999, 45.57], [15.049999999999999, 45.13]]]}}, {"type": "Feature", "properties": {"name": "Varaždinska županija"}, "geometry": {"type": "Polygon", "coordinates": [[[16.04, 46.06], [16.64, 46.06], [16.64, 46.5], [16.04, 46.5], [16.04, 46.06]]]}}, {"type": "Feature", "properties": {"name": "Koprivničko-križevačka županija"}, "geometry": {"type": "Polygon", "coordinates": [[[16.5, 45.88], [17.1, 45.88], [17.1, 46.32], [16.5, 46.32], [16.5, 45.88]]]}}, {"type": "Feature", "properties": {"name": "Bjelovarsko-bilogorska županija"}, "geometry": {"type": "Polygon", "coordinates": [[[16.65, 45.58], [17.25, 45.58], [17.25, 46.019999999999996], [16.65, 46.019999999999996], [16.65, 45.58]]]}}, {"type": "Feature", "properties": {"name": "Primorsko-goranska županija"}, "geometry": {"type": "Polygon", "coordinates": [[[14.25, 45.08], [14.850000000000001, 45.08], [14.850000000000001, 45.519999999999996], [14.25, 45.519999999999996], [14.25, 45.08]]]}}, {"type": "Feature", "properties": {"name": "Ličko-senjska županija"}, "geometry": {"type": "Polygon", "coordinates": [[[15.049999999999999, 44.53], [15.65, 44.53], [15.65, 44.97], [15.049999999999999, 44.97], [15.049999999999999, 44.53]]]}}, {"type": "Feature", "properties": {"name": "Virovitičko-podravska županija"}, "geometry": {"type": "Polygon", "coordinates": [[[17.25, 45.53], [17.85, 45.53], [17.85, 45.97], [17.25, 45.97], [17.25, 45.53]]]}}, {"type": "Feature", "properties": {"name": "Požeško-slavonska županija"}, "geometry": {"type": "Polygon", "coordinates": [[[17.349999999999998, 45.13], [17.95, 45.13], [17.95, 45.57], [17.349999999999998, 45.57], [17.349999999999998, 45.13]]]}}, {"type": "Feature", "properties": {"name": "Brodsko-posavska županija"}, "geometry": {"type": "Polygon", "coordinates": [[[17.75, 44.93], [18.35, 44.93], [18.35, 45.37], [17.75, 45.37], [17.75, 44.93]]]}}, {"type": "Feature", "properties": {"name": "Zadarska županija"}, "geometry": {"type": "Polygon", "coordinates": [[[15.049999999999999, 43.980000000000004], [15.65, 43.980000000000004], [15.65, 44.42], [15.049999999999999, 44.42], [15.049999999999999, 43.980000000000004]]]}}, {"type": "Feature", "properties": {"name": "Osječko-baranjska županija"}, "geometry": {"type": "Polygon", "coordinates": [[[18.25, 45.33], [18.85, 45.33], [18.85, 45.769999999999996], [18.25, 45.769999999999996], [18.25, 45.33]]]}}, {"type": "Feature", "properties": {"name": "Šibensko-kninska županija"}, "geometry": {"type": "Polygon", "coordinates": [[[15.7, 43.68], [16.3, 43.68], [16.3, 44.12], [15.7, 44.12], [15.7, 43.68]]]}}, {"type": "Feature", "properties": {"name": "Vukovarsko-srijemska županija"}, "geometry": {"type": "Polygon", "coordinates": [[[18.5, 44.93], [19.1, 44.93], [19.1, 45.37], [18.5, 45.37], [18.5, 44.93]]]}}, {"type": "Feature", "properties": {"name": "Splitsko-dalmatinska županija"}, "geometry": {"type": "Polygon", "coordinates": [[[16.349999999999998, 43.13], [16.95, 43.13], [16.95, 43.57], [16.349999999999998, 43.57], [16.349999999999998, 43.13]]]}}, {"type": "Feature", "properties": {"name": "Istarska županija"}, "geometry": {"type": "Polygon", "coordinates": [[[13.649999999999999, 44.88], [14.25, 44.88], [14.25, 45.32], [13.649999999999999, 45.32], [13.649999999999999, 44.88]]]}}, {"type": "Feature", "properties": {"name": "Dubrovačko-neretvanska županija"}, "geometry": {"type": "Polygon", "coordinates": [[[17.4, 42.63], [18.0, 42.63], [18.0, 43.07], [17.4, 43.07], [17.4, 42.63]]]}}, {"type": "Feature", "properties": {"name": "Međimurska županija"}, "geometry": {"type": "Polygon", "coordinates": [[[16.25, 46.21], [16.85, 46.21], [16.85, 46.65], [16.25, 46.65], [16.25, 46.21]]]}}, {"type": "Feature", "properties": {"name": "Grad Zagreb"}, "geometry": {"type": "Polygon", "coordinates": [[[15.88, 45.74], [16.080000000000002, 45.74], [16.080000000000002, 45.88], [15.88, 45.88], [15.88, 45.74]]]}}]}